LANDSAT 8
1 39084U 13008A   26233.26117516  .00000236  00000+0  62489-4 0  9994
2 39084  98.2254 302.6073 0001267  93.5241 266.6102 14.57103103707379
SENTINEL-1A
1 39634U 14016A   26233.30102998  .00000030  00000+0  15858-4 0  9998
2 39634  98.1590 239.8252 0001397  80.3789 279.7569 14.59750796659519
SENTINEL-2A
1 40697U 15028A   26233.31957108  .00000045  00000+0  33894-4 0  9991
2 40697  98.5642 307.2334 0001308  86.0979 274.0353 14.30817210583046
SENTINEL-2B
1 42063U 17013A   26233.31236117  .00000050  00000+0  35812-4 0  9994
2 42063  98.5649 307.1543 0001242  87.3566 272.7759 14.30815062493954
LANDSAT 9
1 49260U 21088A   26233.08953148  .00000253  00000+0  66126-4 0  9998
2 49260  98.2234 302.4655 0001353 105.9515 254.1833 14.57115615260453
SENTINEL-2C
1 60989U 24157A   26233.20747668  .00000063  00000+0  40524-4 0  9994
2 60989  98.5655 307.0558 0001351 104.5846 255.5487 14.30814101102280
